EYESAT A (AO-27)        
1 22825U 93061C   26195.40994706  .00000040  00000+0  32390-4 0  9994
2 22825  98.6869 262.8119 0008802  28.0546 332.1110 14.30948934710890
ITAMSAT (IO-26)         
1 22826U 93061D   26195.17152562  .00000038  00000+0  31180-4 0  9998
2 22826  98.6816 262.4937 0009020  12.3228 347.8174 14.31376485711175
RADIO ROSTO (RS15)      
1 23439U 94085A   26195.52090915 -.00000036  00000+0  18080-3 0  9990
2 23439  64.8152 259.0113 0156894 358.8329   1.2209 11.27583545298982
JAS-2 (FO-29)           
1 24278U 96046B   26195.51842716  .00000013  00000+0  47764-4 0  9990
2 24278  98.5220  40.6440 0350393  25.6940 336.1154 13.53275620476866
FORTE                   
1 24920U 97047A   26195.62409846  .00000058  00000+0  46512-4 0  9990
2 24920  69.9547 312.0472 0024348 244.1843 115.6768 14.27955250502602
TECHSAT 1B (GO-32)      
1 25397U 98043D   26195.52935320  .00000006  00000+0  22945-4 0  9993
2 25397  99.0085 188.9795 0002171 115.5342 244.6061 14.24433285455225
ISS (ZARYA)             
1 25544U 98067A   26195.41159911  .00003993  00000+0  80585-4 0  9997
2 25544  51.6306 165.3606 0006702 294.7447  65.2843 15.49007257575973
IMAGE                   
1 26113U 00017A   26191.39817865 -.00000042  00000+0  00000+0 0  9992
2 26113  94.2468 315.6762 7416054 285.1805   9.7435  1.68666826161896
CLUSTER II-FM7 (SAMBA)  
1 26410U 00041A   26192.68021872  .00012833  00000+0  00000+0 0  9997
2 26410 149.8437  55.3938 9082311 272.8334 359.6328  0.44896530 20420
CLUSTER II-FM8 (TANGO)  
1 26464U 00045B   26193.20090759  .00013276  00000+0  00000+0 0  9991
2 26464 150.0466  56.7498 9087829 274.0539   2.1034  0.44428696 20429
ODIN                    
1 26702U 01007A   26195.61368094  .00278852  30205-4  97817-3 0  9996
2 26702  97.3736 238.5522 0005132 154.7037 205.4488 15.89188235393735
OMNI-M1                 
1 26857U 01026A   26194.21749145  .00000018  00000+0  00000+0 0  9999
2 26857  44.8246 239.2639 0013522  57.5126 302.6838  3.92401929206592
PCSAT (NO-44)           
1 26931U 01043C   26195.32908449  .00000011  00000+0  34933-4 0  9998
2 26931  67.0494 174.0696 0005927 266.5603  93.4821 14.31964812294334
PROBA-1                 
1 26958U 01049B   26195.61543950  .00001434  00000+0  95512-4 0  9997
2 26958  97.9600 205.1071 0055843  31.7032 328.7538 15.07615088347753
SAUDISAT 1C (SO-50)     
1 27607U 02058C   26195.33002808  .00000387  00000+0  63645-4 0  9999
2 27607  64.5518  45.0024 0074555 257.4262 101.8498 14.83097490268486
CORIOLIS                
1 27640U 03001A   26195.60802488  .00000044  00000+0  41076-4 0  9991
2 27640  98.7134 202.0746 0014891 130.7545 229.4927 14.19951709218116
CUTE-1 (CO-55)          
1 27844U 03031E   26195.57423981  .00000140  00000+0  79585-4 0  9996
2 27844  98.6742 203.7891 0010828 104.2879 255.9503 14.24351311195574
CUBESAT XI-IV (CO-57)   
1 27848U 03031J   26195.57646245  .00000117  00000+0  70501-4 0  9993
2 27848  98.6774 203.4819 0010526 121.1058 239.1154 14.23634354195275
MOZHAETS 4 (RS22)       
1 27939U 03042A   26195.65170929  .00000736  00000+0  12153-3 0  9991
2 27939  98.3469  20.7880 0011188 174.9452 274.4102 14.73514870219593
